STARLINK-35893          
1 66565U 25268J   25361.00003472 -.02007118  00000+0 -50324-1 0  9999
2 66565  43.0005  37.5913 0001148 261.5120  61.8225 15.42779333  6027
STARLINK-35871          
1 66566U 25268K   25361.00003472 -.02041463  00000+0 -50348-1 0  9997
2 66566  43.0003  37.5710 0001255 263.7549  67.1617 15.43324198  6085
STARLINK-35825          
1 66567U 25268L   25360.42207498 -.00142593  00000+0 -27714-2 0  9993
2 66567  43.0008  40.9040 0003299 161.8887 198.2090 15.47297654  6753
STARLINK-35803          
1 66568U 25268M   25361.00003472 -.01732935  00000+0 -39402-1 0  9997
2 66568  43.0003  37.5820 0001385 266.9837  59.3876 15.45680243  6020
STARLINK-35835          
1 66569U 25268N   25361.00003472 -.02022174  00000+0 -46397-1 0  9997
2 66569  43.0004  37.5087 0001359 263.5192  93.2374 15.45390178  6086
STARLINK-35834          
1 66570U 25268P   25361.00003472 -.01808187  00000+0 -66576-1 0  9995
2 66570  43.0002  38.0297 0001940 280.7109 222.3730 15.30624103  6027
STARLINK-35836          
1 66571U 25268Q   25361.00003472 -.02003257  00000+0 -71244-1 0  9990
2 66571  43.0002  37.9830 0001281 282.6353 239.2826 15.31527327  6089
STARLINK-35870          
1 66572U 25268R   25361.00003472 -.01949109  00000+0 -67242-1 0  9998
2 66572  43.0001  37.9126 0001064 291.4658 260.3787 15.32967936  6022
STARLINK-35650          
1 66573U 25268S   25361.00003472 -.01961634  00000+0 -65928-1 0  9995
2 66573  43.0014  37.8694 0000955 289.7457 279.4114 15.33812264  5962
STARLINK-35812          
1 66574U 25268T   25361.00003472 -.01983625  00000+0 -64967-1 0  9992
2 66574  43.0014  37.8283 0000847 287.6078 298.2978 15.34660030  6087
STARLINK-35810          
1 66575U 25268U   25361.00003472 -.02059623  00000+0 -64695-1 0  9994
2 66575  43.0011  37.7872 0000904 283.5601 318.5369 15.35511655  6088
STARLINK-35814          
1 66576U 25268V   25361.00003472 -.01995946  00000+0 -61962-1 0  9995
2 66576  43.0009  37.7508 0000870 275.1857 342.5421 15.36338027  6081
