CCSDS_OMM_VERS = 2.0
CREATION_DATE  = 
ORIGINATOR     = 

OBJECT_NAME    = STARLINK-35893
OBJECT_ID      = 2025-268J
CENTER_NAME    = EARTH
REF_FRAME      = TEME
TIME_SYSTEM    = UTC
MEAN_ELEMENT_THEORY = SGP/SGP4

EPOCH          = 2025-12-27T00:00:02.999808
MEAN_MOTION    = 15.42779333
ECCENTRICITY   = .00011484
INCLINATION    = 43.0005
RA_OF_ASC_NODE = 37.5913
ARG_OF_PERICENTER = 261.5120
MEAN_ANOMALY   = 61.8225

EPHEMERIS_TYPE = 0
CLASSIFICATION_TYPE = U
NORAD_CAT_ID   = 66565
ELEMENT_SET_NO = 999
REV_AT_EPOCH   = 602
BSTAR          = -.5032383E-1
MEAN_MOTION_DOT = -.2007118E-1
MEAN_MOTION_DDOT = 0

CCSDS_OMM_VERS = 2.0
CREATION_DATE  = 
ORIGINATOR     = 

OBJECT_NAME    = STARLINK-35871
OBJECT_ID      = 2025-268K
CENTER_NAME    = EARTH
REF_FRAME      = TEME
TIME_SYSTEM    = UTC
MEAN_ELEMENT_THEORY = SGP/SGP4

EPOCH          = 2025-12-27T00:00:02.999808
MEAN_MOTION    = 15.43324198
ECCENTRICITY   = .00012551
INCLINATION    = 43.0003
RA_OF_ASC_NODE = 37.5710
ARG_OF_PERICENTER = 263.7549
MEAN_ANOMALY   = 67.1617

EPHEMERIS_TYPE = 0
CLASSIFICATION_TYPE = U
NORAD_CAT_ID   = 66566
ELEMENT_SET_NO = 999
REV_AT_EPOCH   = 608
BSTAR          = -.50347645E-1
MEAN_MOTION_DOT = -.2041463E-1
MEAN_MOTION_DDOT = 0

CCSDS_OMM_VERS = 2.0
CREATION_DATE  = 
ORIGINATOR     = 

OBJECT_NAME    = STARLINK-35825
OBJECT_ID      = 2025-268L
CENTER_NAME    = EARTH
REF_FRAME      = TEME
TIME_SYSTEM    = UTC
MEAN_ELEMENT_THEORY = SGP/SGP4

EPOCH          = 2025-12-26T10:07:47.278272
MEAN_MOTION    = 15.47297654
ECCENTRICITY   = .00032993
INCLINATION    = 43.0008
RA_OF_ASC_NODE = 40.9040
ARG_OF_PERICENTER = 161.8887
MEAN_ANOMALY   = 198.2090

EPHEMERIS_TYPE = 0
CLASSIFICATION_TYPE = U
NORAD_CAT_ID   = 66567
ELEMENT_SET_NO = 999
REV_AT_EPOCH   = 675
BSTAR          = -.27714476E-2
MEAN_MOTION_DOT = -.142593E-2
MEAN_MOTION_DDOT = 0

CCSDS_OMM_VERS = 2.0
CREATION_DATE  = 
ORIGINATOR     = 

OBJECT_NAME    = STARLINK-35803
OBJECT_ID      = 2025-268M
CENTER_NAME    = EARTH
REF_FRAME      = TEME
TIME_SYSTEM    = UTC
MEAN_ELEMENT_THEORY = SGP/SGP4

EPOCH          = 2025-12-27T00:00:02.999808
MEAN_MOTION    = 15.45680243
ECCENTRICITY   = .00013857
INCLINATION    = 43.0003
RA_OF_ASC_NODE = 37.5820
ARG_OF_PERICENTER = 266.9837
MEAN_ANOMALY   = 59.3876

EPHEMERIS_TYPE = 0
CLASSIFICATION_TYPE = U
NORAD_CAT_ID   = 66568
ELEMENT_SET_NO = 999
REV_AT_EPOCH   = 602
BSTAR          = -.39402396E-1
MEAN_MOTION_DOT = -.1732935E-1
MEAN_MOTION_DDOT = 0

CCSDS_OMM_VERS = 2.0
CREATION_DATE  = 
ORIGINATOR     = 

OBJECT_NAME    = STARLINK-35835
OBJECT_ID      = 2025-268N
CENTER_NAME    = EARTH
REF_FRAME      = TEME
TIME_SYSTEM    = UTC
MEAN_ELEMENT_THEORY = SGP/SGP4

EPOCH          = 2025-12-27T00:00:02.999808
MEAN_MOTION    = 15.45390178
ECCENTRICITY   = .00013598
INCLINATION    = 43.0004
RA_OF_ASC_NODE = 37.5087
ARG_OF_PERICENTER = 263.5192
MEAN_ANOMALY   = 93.2374

EPHEMERIS_TYPE = 0
CLASSIFICATION_TYPE = U
NORAD_CAT_ID   = 66569
ELEMENT_SET_NO = 999
REV_AT_EPOCH   = 608
BSTAR          = -.46397244E-1
MEAN_MOTION_DOT = -.2022174E-1
MEAN_MOTION_DDOT = 0

CCSDS_OMM_VERS = 2.0
CREATION_DATE  = 
ORIGINATOR     = 

OBJECT_NAME    = STARLINK-35834
OBJECT_ID      = 2025-268P
CENTER_NAME    = EARTH
REF_FRAME      = TEME
TIME_SYSTEM    = UTC
MEAN_ELEMENT_THEORY = SGP/SGP4

EPOCH          = 2025-12-27T00:00:02.999808
MEAN_MOTION    = 15.30624103
ECCENTRICITY   = .00019409
INCLINATION    = 43.0002
RA_OF_ASC_NODE = 38.0297
ARG_OF_PERICENTER = 280.7109
MEAN_ANOMALY   = 222.3730

EPHEMERIS_TYPE = 0
CLASSIFICATION_TYPE = U
NORAD_CAT_ID   = 66570
ELEMENT_SET_NO = 999
REV_AT_EPOCH   = 602
BSTAR          = -.66575864E-1
MEAN_MOTION_DOT = -.1808187E-1
MEAN_MOTION_DDOT = 0

CCSDS_OMM_VERS = 2.0
CREATION_DATE  = 
ORIGINATOR     = 

OBJECT_NAME    = STARLINK-35836
OBJECT_ID      = 2025-268Q
CENTER_NAME    = EARTH
REF_FRAME      = TEME
TIME_SYSTEM    = UTC
MEAN_ELEMENT_THEORY = SGP/SGP4

EPOCH          = 2025-12-27T00:00:02.999808
MEAN_MOTION    = 15.31527327
ECCENTRICITY   = .00012812
INCLINATION    = 43.0002
RA_OF_ASC_NODE = 37.9830
ARG_OF_PERICENTER = 282.6353
MEAN_ANOMALY   = 239.2826

EPHEMERIS_TYPE = 0
CLASSIFICATION_TYPE = U
NORAD_CAT_ID   = 66571
ELEMENT_SET_NO = 999
REV_AT_EPOCH   = 608
BSTAR          = -.71244156E-1
MEAN_MOTION_DOT = -.2003257E-1
MEAN_MOTION_DDOT = 0

CCSDS_OMM_VERS = 2.0
CREATION_DATE  = 
ORIGINATOR     = 

OBJECT_NAME    = STARLINK-35870
OBJECT_ID      = 2025-268R
CENTER_NAME    = EARTH
REF_FRAME      = TEME
TIME_SYSTEM    = UTC
MEAN_ELEMENT_THEORY = SGP/SGP4

EPOCH          = 2025-12-27T00:00:02.999808
MEAN_MOTION    = 15.32967936
ECCENTRICITY   = .00010645
INCLINATION    = 43.0001
RA_OF_ASC_NODE = 37.9126
ARG_OF_PERICENTER = 291.4658
MEAN_ANOMALY   = 260.3787

EPHEMERIS_TYPE = 0
CLASSIFICATION_TYPE = U
NORAD_CAT_ID   = 66572
ELEMENT_SET_NO = 999
REV_AT_EPOCH   = 602
BSTAR          = -.67242034E-1
MEAN_MOTION_DOT = -.1949109E-1
MEAN_MOTION_DDOT = 0

CCSDS_OMM_VERS = 2.0
CREATION_DATE  = 
ORIGINATOR     = 

OBJECT_NAME    = STARLINK-35650
OBJECT_ID      = 2025-268S
CENTER_NAME    = EARTH
REF_FRAME      = TEME
TIME_SYSTEM    = UTC
MEAN_ELEMENT_THEORY = SGP/SGP4

EPOCH          = 2025-12-27T00:00:02.999808
MEAN_MOTION    = 15.33812264
ECCENTRICITY   = .00009552
INCLINATION    = 43.0014
RA_OF_ASC_NODE = 37.8694
ARG_OF_PERICENTER = 289.7457
MEAN_ANOMALY   = 279.4114

EPHEMERIS_TYPE = 0
CLASSIFICATION_TYPE = U
NORAD_CAT_ID   = 66573
ELEMENT_SET_NO = 999
REV_AT_EPOCH   = 596
BSTAR          = -.65927524E-1
MEAN_MOTION_DOT = -.1961634E-1
MEAN_MOTION_DDOT = 0

CCSDS_OMM_VERS = 2.0
CREATION_DATE  = 
ORIGINATOR     = 

OBJECT_NAME    = STARLINK-35812
OBJECT_ID      = 2025-268T
CENTER_NAME    = EARTH
REF_FRAME      = TEME
TIME_SYSTEM    = UTC
MEAN_ELEMENT_THEORY = SGP/SGP4

EPOCH          = 2025-12-27T00:00:02.999808
MEAN_MOTION    = 15.34660030
ECCENTRICITY   = .00008471
INCLINATION    = 43.0014
RA_OF_ASC_NODE = 37.8283
ARG_OF_PERICENTER = 287.6078
MEAN_ANOMALY   = 298.2978

EPHEMERIS_TYPE = 0
CLASSIFICATION_TYPE = U
NORAD_CAT_ID   = 66574
ELEMENT_SET_NO = 999
REV_AT_EPOCH   = 608
BSTAR          = -.6496744E-1
MEAN_MOTION_DOT = -.1983625E-1
MEAN_MOTION_DDOT = 0

CCSDS_OMM_VERS = 2.0
CREATION_DATE  = 
ORIGINATOR     = 

OBJECT_NAME    = STARLINK-35810
OBJECT_ID      = 2025-268U
CENTER_NAME    = EARTH
REF_FRAME      = TEME
TIME_SYSTEM    = UTC
MEAN_ELEMENT_THEORY = SGP/SGP4

EPOCH          = 2025-12-27T00:00:02.999808
MEAN_MOTION    = 15.35511655
ECCENTRICITY   = .00009041
INCLINATION    = 43.0011
RA_OF_ASC_NODE = 37.7872
ARG_OF_PERICENTER = 283.5601
MEAN_ANOMALY   = 318.5369

EPHEMERIS_TYPE = 0
CLASSIFICATION_TYPE = U
NORAD_CAT_ID   = 66575
ELEMENT_SET_NO = 999
REV_AT_EPOCH   = 608
BSTAR          = -.64695411E-1
MEAN_MOTION_DOT = -.2059623E-1
MEAN_MOTION_DDOT = 0

CCSDS_OMM_VERS = 2.0
CREATION_DATE  = 
ORIGINATOR     = 

OBJECT_NAME    = STARLINK-35814
OBJECT_ID      = 2025-268V
CENTER_NAME    = EARTH
REF_FRAME      = TEME
TIME_SYSTEM    = UTC
MEAN_ELEMENT_THEORY = SGP/SGP4

EPOCH          = 2025-12-27T00:00:02.999808
MEAN_MOTION    = 15.36338027
ECCENTRICITY   = .00008707
INCLINATION    = 43.0009
RA_OF_ASC_NODE = 37.7508
ARG_OF_PERICENTER = 275.1857
MEAN_ANOMALY   = 342.5421

EPHEMERIS_TYPE = 0
CLASSIFICATION_TYPE = U
NORAD_CAT_ID   = 66576
ELEMENT_SET_NO = 999
REV_AT_EPOCH   = 608
BSTAR          = -.61961869E-1
MEAN_MOTION_DOT = -.1995946E-1
MEAN_MOTION_DDOT = 0

